ADRAS-J                 
1 58992U 24034A   24296.55613487  .00007440  00000+0  65524-3 0  9997
2 58992  98.2280 275.6256 0041977 352.4597   7.5986 14.96116095 36893
